[{"OBJECT_NAME":"STARLINK-3970","OBJECT_ID":"2022-053BC","EPOCH":"2026-03-09T13:11:20.895360","MEAN_MOTION":15.08840677,"ECCENTRICITY":0.0001085,"INCLINATION":53.2157,"RA_OF_ASC_NODE":134.7499,"ARG_OF_PERICENTER":89.5291,"MEAN_ANOMALY":270.5826,"EPHEMERIS_TYPE":0,"CLASSIFICATION_TYPE":"U","NORAD_CAT_ID":52706,"ELEMENT_SET_NO":999,"REV_AT_EPOCH":21129,"BSTAR":1.3268e-5,"MEAN_MOTION_DOT":-7.7e-7,"MEAN_MOTION_DDOT":0},{"OBJECT_NAME":"PEGASUS DEB","OBJECT_ID":"1994-029AFX","EPOCH":"2026-03-01T06:33:22.731264","MEAN_MOTION":14.85739755,"ECCENTRICITY":0.0106553,"INCLINATION":81.851,"RA_OF_ASC_NODE":257.2393,"ARG_OF_PERICENTER":271.4617,"MEAN_ANOMALY":87.4394,"EPHEMERIS_TYPE":0,"CLASSIFICATION_TYPE":"U","NORAD_CAT_ID":39924,"ELEMENT_SET_NO":999,"REV_AT_EPOCH":63095,"BSTAR":0.00041812,"MEAN_MOTION_DOT":4.045e-5,"MEAN_MOTION_DDOT":0}]
